ORBCOMM FM33            
1 25983U 99065D   24253.95079053  .00005077  00000+0  16975-2 0  9998
2 25983  45.0273 249.7890 0006649  82.0767 278.0836 14.38312923295695
ORBCOMM FM36            
1 25984U 99065E   24253.75065085  .00005104  00000+0  17772-2 0  9994
2 25984  45.0405 338.3017 0004372 297.4913  62.5491 14.36294834294662
ORBCOMM FM35            
1 25985U 99065F   24253.55700602  .00004260  00000+0  15103-2 0  9992
2 25985  45.0407 342.3352 0001298  86.4033 273.6963 14.35678301294433
ORBCOMM FM34            
1 25986U 99065G   24253.59885790  .00004214  00000+0  14943-2 0  9999
2 25986  45.0398 342.6876 0002670 340.8802  19.1945 14.35674848294551
ORBCOMM FM38            
1 33060U 08031A   24253.86414867  .00008756  00000+0  12106-2 0  9991
2 33060  48.4395 208.7515 0005499 278.6416  81.3875 14.78587428873224
ORBCOMM FM41            
1 33061U 08031B   24253.94106000  .00007572  00000+0  10582-2 0  9999
2 33061  48.4425 215.3017 0004634 265.9172 138.1522 14.78297199872736
ORBCOMM FM29            
1 33062U 08031C   24253.68706522  .00008030  00000+0  11213-2 0  9998
2 33062  48.4382 224.5346 0006387 263.6651 266.6585 14.78255194872601
ORBCOMM FM39            
1 33063U 08031D   24253.70788509  .00007242  00000+0  10411-2 0  9990
2 33063  48.4394 245.9288 0007263 238.8911 121.1291 14.77130490872298
