<?xml version="1.0" encoding="UTF-8"?>
<ndm xmlns:xsi="http://www.w3.org/2001/XMLSchema-instance" xsi:noNamespaceSchemaLocation="https://sanaregistry.org/r/ndmxml_unqualified/ndmxml-2.0.0-master-2.0.xsd">
<omm id="CCSDS_OMM_VERS" version="2.0">
<header><CREATION_DATE/><ORIGINATOR/></header><body><segment><metadata><OBJECT_NAME>ORBCOMM FM33</OBJECT_NAME><OBJECT_ID>1999-065D</OBJECT_ID><CENTER_NAME>EARTH</CENTER_NAME><REF_FRAME>TEME</REF_FRAME><TIME_SYSTEM>UTC</TIME_SYSTEM><MEAN_ELEMENT_THEORY>SGP4</MEAN_ELEMENT_THEORY></metadata><data><meanElements><EPOCH>2024-09-09T22:49:08.301792</EPOCH><MEAN_MOTION>14.38312923</MEAN_MOTION><ECCENTRICITY>.0006649</ECCENTRICITY><INCLINATION>45.0273</INCLINATION><RA_OF_ASC_NODE>249.7890</RA_OF_ASC_NODE><ARG_OF_PERICENTER>82.0767</ARG_OF_PERICENTER><MEAN_ANOMALY>278.0836</MEAN_ANOMALY></meanElements><tleParameters><EPHEMERIS_TYPE>0</EPHEMERIS_TYPE><CLASSIFICATION_TYPE>U</CLASSIFICATION_TYPE><NORAD_CAT_ID>25983</NORAD_CAT_ID><ELEMENT_SET_NO>999</ELEMENT_SET_NO><REV_AT_EPOCH>29569</REV_AT_EPOCH><BSTAR>.16975E-2</BSTAR><MEAN_MOTION_DOT>.5077E-4</MEAN_MOTION_DOT><MEAN_MOTION_DDOT>0</MEAN_MOTION_DDOT></tleParameters></data></segment></body></omm>
<omm id="CCSDS_OMM_VERS" version="2.0">
<header><CREATION_DATE/><ORIGINATOR/></header><body><segment><metadata><OBJECT_NAME>ORBCOMM FM36</OBJECT_NAME><OBJECT_ID>1999-065E</OBJECT_ID><CENTER_NAME>EARTH</CENTER_NAME><REF_FRAME>TEME</REF_FRAME><TIME_SYSTEM>UTC</TIME_SYSTEM><MEAN_ELEMENT_THEORY>SGP4</MEAN_ELEMENT_THEORY></metadata><data><meanElements><EPOCH>2024-09-09T18:00:56.233440</EPOCH><MEAN_MOTION>14.36294834</MEAN_MOTION><ECCENTRICITY>.0004372</ECCENTRICITY><INCLINATION>45.0405</INCLINATION><RA_OF_ASC_NODE>338.3017</RA_OF_ASC_NODE><ARG_OF_PERICENTER>297.4913</ARG_OF_PERICENTER><MEAN_ANOMALY>62.5491</MEAN_ANOMALY></meanElements><tleParameters><EPHEMERIS_TYPE>0</EPHEMERIS_TYPE><CLASSIFICATION_TYPE>U</CLASSIFICATION_TYPE><NORAD_CAT_ID>25984</NORAD_CAT_ID><ELEMENT_SET_NO>999</ELEMENT_SET_NO><REV_AT_EPOCH>29466</REV_AT_EPOCH><BSTAR>.17772E-2</BSTAR><MEAN_MOTION_DOT>.5104E-4</MEAN_MOTION_DOT><MEAN_MOTION_DDOT>0</MEAN_MOTION_DDOT></tleParameters></data></segment></body></omm>
<omm id="CCSDS_OMM_VERS" version="2.0">
<header><CREATION_DATE/><ORIGINATOR/></header><body><segment><metadata><OBJECT_NAME>ORBCOMM FM35</OBJECT_NAME><OBJECT_ID>1999-065F</OBJECT_ID><CENTER_NAME>EARTH</CENTER_NAME><REF_FRAME>TEME</REF_FRAME><TIME_SYSTEM>UTC</TIME_SYSTEM><MEAN_ELEMENT_THEORY>SGP4</MEAN_ELEMENT_THEORY></metadata><data><meanElements><EPOCH>2024-09-09T13:22:05.320128</EPOCH><MEAN_MOTION>14.35678301</MEAN_MOTION><ECCENTRICITY>.0001298</ECCENTRICITY><INCLINATION>45.0407</INCLINATION><RA_OF_ASC_NODE>342.3352</RA_OF_ASC_NODE><ARG_OF_PERICENTER>86.4033</ARG_OF_PERICENTER><MEAN_ANOMALY>273.6963</MEAN_ANOMALY></meanElements><tleParameters><EPHEMERIS_TYPE>0</EPHEMERIS_TYPE><CLASSIFICATION_TYPE>U</CLASSIFICATION_TYPE><NORAD_CAT_ID>25985</NORAD_CAT_ID><ELEMENT_SET_NO>999</ELEMENT_SET_NO><REV_AT_EPOCH>29443</REV_AT_EPOCH><BSTAR>.15103E-2</BSTAR><MEAN_MOTION_DOT>.426E-4</MEAN_MOTION_DOT><MEAN_MOTION_DDOT>0</MEAN_MOTION_DDOT></tleParameters></data></segment></body></omm>
<omm id="CCSDS_OMM_VERS" version="2.0">
<header><CREATION_DATE/><ORIGINATOR/></header><body><segment><metadata><OBJECT_NAME>ORBCOMM FM34</OBJECT_NAME><OBJECT_ID>1999-065G</OBJECT_ID><CENTER_NAME>EARTH</CENTER_NAME><REF_FRAME>TEME</REF_FRAME><TIME_SYSTEM>UTC</TIME_SYSTEM><MEAN_ELEMENT_THEORY>SGP4</MEAN_ELEMENT_THEORY></metadata><data><meanElements><EPOCH>2024-09-09T14:22:21.322560</EPOCH><MEAN_MOTION>14.35674848</MEAN_MOTION><ECCENTRICITY>.000267</ECCENTRICITY><INCLINATION>45.0398</INCLINATION><RA_OF_ASC_NODE>342.6876</RA_OF_ASC_NODE><ARG_OF_PERICENTER>340.8802</ARG_OF_PERICENTER><MEAN_ANOMALY>19.1945</MEAN_ANOMALY></meanElements><tleParameters><EPHEMERIS_TYPE>0</EPHEMERIS_TYPE><CLASSIFICATION_TYPE>U</CLASSIFICATION_TYPE><NORAD_CAT_ID>25986</NORAD_CAT_ID><ELEMENT_SET_NO>999</ELEMENT_SET_NO><REV_AT_EPOCH>29455</REV_AT_EPOCH><BSTAR>.14943E-2</BSTAR><MEAN_MOTION_DOT>.4214E-4</MEAN_MOTION_DOT><MEAN_MOTION_DDOT>0</MEAN_MOTION_DDOT></tleParameters></data></segment></body></omm>
<omm id="CCSDS_OMM_VERS" version="2.0">
<header><CREATION_DATE/><ORIGINATOR/></header><body><segment><metadata><OBJECT_NAME>ORBCOMM FM38</OBJECT_NAME><OBJECT_ID>2008-031A</OBJECT_ID><CENTER_NAME>EARTH</CENTER_NAME><REF_FRAME>TEME</REF_FRAME><TIME_SYSTEM>UTC</TIME_SYSTEM><MEAN_ELEMENT_THEORY>SGP4</MEAN_ELEMENT_THEORY></metadata><data><meanElements><EPOCH>2024-09-09T20:44:22.445088</EPOCH><MEAN_MOTION>14.78587428</MEAN_MOTION><ECCENTRICITY>.0005499</ECCENTRICITY><INCLINATION>48.4395</INCLINATION><RA_OF_ASC_NODE>208.7515</RA_OF_ASC_NODE><ARG_OF_PERICENTER>278.6416</ARG_OF_PERICENTER><MEAN_ANOMALY>81.3875</MEAN_ANOMALY></meanElements><tleParameters><EPHEMERIS_TYPE>0</EPHEMERIS_TYPE><CLASSIFICATION_TYPE>U</CLASSIFICATION_TYPE><NORAD_CAT_ID>33060</NORAD_CAT_ID><ELEMENT_SET_NO>999</ELEMENT_SET_NO><REV_AT_EPOCH>87322</REV_AT_EPOCH><BSTAR>.12106E-2</BSTAR><MEAN_MOTION_DOT>.8756E-4</MEAN_MOTION_DOT><MEAN_MOTION_DDOT>0</MEAN_MOTION_DDOT></tleParameters></data></segment></body></omm>
<omm id="CCSDS_OMM_VERS" version="2.0">
<header><CREATION_DATE/><ORIGINATOR/></header><body><segment><metadata><OBJECT_NAME>ORBCOMM FM41</OBJECT_NAME><OBJECT_ID>2008-031B</OBJECT_ID><CENTER_NAME>EARTH</CENTER_NAME><REF_FRAME>TEME</REF_FRAME><TIME_SYSTEM>UTC</TIME_SYSTEM><MEAN_ELEMENT_THEORY>SGP4</MEAN_ELEMENT_THEORY></metadata><data><meanElements><EPOCH>2024-09-09T22:35:07.584000</EPOCH><MEAN_MOTION>14.78297199</MEAN_MOTION><ECCENTRICITY>.0004634</ECCENTRICITY><INCLINATION>48.4425</INCLINATION><RA_OF_ASC_NODE>215.3017</RA_OF_ASC_NODE><ARG_OF_PERICENTER>265.9172</ARG_OF_PERICENTER><MEAN_ANOMALY>138.1522</MEAN_ANOMALY></meanElements><tleParameters><EPHEMERIS_TYPE>0</EPHEMERIS_TYPE><CLASSIFICATION_TYPE>U</CLASSIFICATION_TYPE><NORAD_CAT_ID>33061</NORAD_CAT_ID><ELEMENT_SET_NO>999</ELEMENT_SET_NO><REV_AT_EPOCH>87273</REV_AT_EPOCH><BSTAR>.10582E-2</BSTAR><MEAN_MOTION_DOT>.7572E-4</MEAN_MOTION_DOT><MEAN_MOTION_DDOT>0</MEAN_MOTION_DDOT></tleParameters></data></segment></body></omm>
<omm id="CCSDS_OMM_VERS" version="2.0">
<header><CREATION_DATE/><ORIGINATOR/></header><body><segment><metadata><OBJECT_NAME>ORBCOMM FM29</OBJECT_NAME><OBJECT_ID>2008-031C</OBJECT_ID><CENTER_NAME>EARTH</CENTER_NAME><REF_FRAME>TEME</REF_FRAME><TIME_SYSTEM>UTC</TIME_SYSTEM><MEAN_ELEMENT_THEORY>SGP4</MEAN_ELEMENT_THEORY></metadata><data><meanElements><EPOCH>2024-09-09T16:29:22.435008</EPOCH><MEAN_MOTION>14.78255194</MEAN_MOTION><ECCENTRICITY>.0006387</ECCENTRICITY><INCLINATION>48.4382</INCLINATION><RA_OF_ASC_NODE>224.5346</RA_OF_ASC_NODE><ARG_OF_PERICENTER>263.6651</ARG_OF_PERICENTER><MEAN_ANOMALY>266.6585</MEAN_ANOMALY></meanElements><tleParameters><EPHEMERIS_TYPE>0</EPHEMERIS_TYPE><CLASSIFICATION_TYPE>U</CLASSIFICATION_TYPE><NORAD_CAT_ID>33062</NORAD_CAT_ID><ELEMENT_SET_NO>999</ELEMENT_SET_NO><REV_AT_EPOCH>87260</REV_AT_EPOCH><BSTAR>.11213E-2</BSTAR><MEAN_MOTION_DOT>.803E-4</MEAN_MOTION_DOT><MEAN_MOTION_DDOT>0</MEAN_MOTION_DDOT></tleParameters></data></segment></body></omm>
<omm id="CCSDS_OMM_VERS" version="2.0">
<header><CREATION_DATE/><ORIGINATOR/></header><body><segment><metadata><OBJECT_NAME>ORBCOMM FM39</OBJECT_NAME><OBJECT_ID>2008-031D</OBJECT_ID><CENTER_NAME>EARTH</CENTER_NAME><REF_FRAME>TEME</REF_FRAME><TIME_SYSTEM>UTC</TIME_SYSTEM><MEAN_ELEMENT_THEORY>SGP4</MEAN_ELEMENT_THEORY></metadata><data><meanElements><EPOCH>2024-09-09T16:59:21.271776</EPOCH><MEAN_MOTION>14.77130490</MEAN_MOTION><ECCENTRICITY>.0007263</ECCENTRICITY><INCLINATION>48.4394</INCLINATION><RA_OF_ASC_NODE>245.9288</RA_OF_ASC_NODE><ARG_OF_PERICENTER>238.8911</ARG_OF_PERICENTER><MEAN_ANOMALY>121.1291</MEAN_ANOMALY></meanElements><tleParameters><EPHEMERIS_TYPE>0</EPHEMERIS_TYPE><CLASSIFICATION_TYPE>U</CLASSIFICATION_TYPE><NORAD_CAT_ID>33063</NORAD_CAT_ID><ELEMENT_SET_NO>999</ELEMENT_SET_NO><REV_AT_EPOCH>87229</REV_AT_EPOCH><BSTAR>.10411E-2</BSTAR><MEAN_MOTION_DOT>.7242E-4</MEAN_MOTION_DOT><MEAN_MOTION_DDOT>0</MEAN_MOTION_DDOT></tleParameters></data></segment></body></omm>

</ndm>
